H1 CPF 01  gfz 2021 11 05 01  8091 tandemx   
H2 1003001  6202 36605    2021 11 05 00 59 42 2021 11 10 00 00 42   120 1 1  0 0 0
H9
10 0 59523   3582.000000  0     422449.584   4380380.711   5289748.682
10 0 59523   3702.000000  0     712069.743   5001353.793   4673762.751
10 0 59523   3822.000000  0     999306.807   5529884.029   3975524.381
10 0 59523   3942.000000  0    1277437.503   5956805.853   3207299.336
10 0 59523   4062.000000  0    1539753.502   6274853.550   2382601.892
10 0 59523   4182.000000  0    1779716.274   6478794.819   1515951.076
10 0 59523   4302.000000  0    1991109.902   6565522.925    622609.931
10 0 59523   4422.000000  0    2168190.050   6534105.887   -281691.210
10 0 59523   4542.000000  0    2305823.573   6385792.281  -1181039.495
10 0 59523   4662.000000  0    2399616.311   6123973.962  -2059627.373
10 0 59523   4782.000000  0    2446025.983   5754106.491  -2902037.461
10 0 59523   4902.000000  0    2442457.037   5283589.021  -3693518.758
10 0 59523   5022.000000  0    2387334.985   4721605.986  -4420247.425
10 0 59523   5142.000000  0    2280158.232   4078936.727  -5069565.864
10 0 59523   5262.000000  0    2121527.418   3367738.959  -5630196.727
10 0 59523   5382.000000  0    1913152.296   2601311.569  -6092430.084
10 0 59523   5502.000000  0    1657835.578   1793840.736  -6448280.847
10 0 59523   5622.000000  0    1359435.534    960136.429  -6691614.494
10 0 59523   5742.000000  0    1022808.055    115363.315  -6818243.124
10 0 59523   5862.000000  0     653727.401   -725230.681  -6825989.996
10 0 59523   5982.000000  0     258788.293  -1546583.665  -6714721.395
10 0 59523   6102.000000  0    -154708.524  -2334081.541  -6486347.840
10 0 59523   6222.000000  0    -578887.236  -3073811.815  -6144796.905
10 0 59523   6342.000000  0   -1005442.977  -3752806.978  -5695952.748
10 0 59523   6462.000000  0   -1425799.354  -4359270.775  -5147564.743
10 0 59523   6582.000000  0   -1831276.637  -4882786.827  -4509125.981
10 0 59523   6702.000000  0   -2213267.863  -5314504.818  -3791719.923
10 0 59523   6822.000000  0   -2563418.984  -5647299.203  -3007836.996
10 0 59523   6942.000000  0   -2873808.961  -5875897.158  -2171163.883
10 0 59523   7062.000000  0   -3137126.277  -5996973.160  -1296348.000
10 0 59523   7182.000000  0   -3346837.544  -6009206.613   -398739.770
10 0 59523   7302.000000  0   -3497342.755  -5913298.997    505882.174
10 0 59523   7422.000000  0   -3584113.142  -5711950.229   1401595.894
10 0 59523   7542.000000  0   -3603808.340  -5409794.404   2272625.704
10 0 59523   7662.000000  0   -3554369.070  -5013295.709   3103629.042
10 0 59523   7782.000000  0   -3435083.376  -4530608.636   3879973.975
10 0 59523   7902.000000  0   -3246624.910  -3971405.766   4588002.329
10 0 59523   8022.000000  0   -2991062.452  -3346676.921   5215272.366
10 0 59523   8142.000000  0   -2671840.824  -2668505.984   5750776.366
10 0 59523   8262.000000  0   -2293733.493  -1949831.368   6185130.072
10 0 59523   8382.000000  0   -1862769.009  -1204195.356   6510732.949
10 0 59523   8502.000000  0   -1386131.155   -445484.698   6721896.634
10 0 59523   8622.000000  0    -872036.438    312330.029   6814935.851
10 0 59523   8742.000000  0    -329592.790   1055450.010   6788228.421
10 0 59523   8862.000000  0     231361.686   1770499.106   6642242.482
10 0 59523   8982.000000  0     800436.993   2444764.637   6379528.768
10 0 59523   9102.000000  0    1366883.116   3066423.174   6004678.102
10 0 59523   9222.000000  0    1919792.078   3624749.192   5524246.451
10 0 59523   9342.000000  0    2448307.764   4110304.175   4946646.682
10 0 59523   9462.000000  0    2941840.940   4515101.813   4282006.729
10 0 59523   9582.000000  0    3390282.661   4832744.307   3541995.778
10 0 59523   9702.000000  0    3784213.262   5058530.184   2739624.360
10 0 59523   9822.000000  0    4115105.418   5189530.817   1889013.662
10 0 59523   9942.000000  0    4375507.806   5224626.593   1005141.852
10 0 59523  10062.000000  0    4559211.805   5164511.366    103575.655
10 0 59523  10182.000000  0    4661393.565   5011657.461   -799814.401
10 0 59523  10302.000000  0    4678728.225   4770242.840  -1689141.206
10 0 59523  10422.000000  0    4609474.634   4446045.963  -2548787.750
10 0 59523  10542.000000  0    4453527.770   4046309.678  -3363687.507
10 0 59523  10662.000000  0    4212437.168   3579577.498  -4119592.215
10 0 59523  10782.000000  0    3889391.758   3055506.943  -4803319.981
10 0 59523  10902.000000  0    3489173.699   2484665.519  -5402980.842
10 0 59523  11022.000000  0    3018081.383   1878314.287  -5908176.438
10 0 59523  11142.000000  0    2483823.869   1248183.511  -6310170.141
10 0 59523  11262.000000  0    1895389.779    606245.930  -6602026.096
10 0 59523  11382.000000  0    1262894.841    -35507.548  -6778717.036
10 0 59523  11502.000000  0     597409.226   -665287.440  -6837203.520
10 0 59523  11622.000000  0     -89234.437  -1271717.849  -6776479.469
10 0 59523  11742.000000  0    -784645.874  -1844035.829  -6597586.409
10 0 59523  11862.000000  0   -1476094.991  -2372277.568  -6303598.844
10 0 59523  11982.000000  0   -2150739.729  -2847449.645  -5899577.082
10 0 59523  12102.000000  0   -2795859.285  -3261681.067  -5392489.145
10 0 59523  12222.000000  0   -3399091.653  -3608355.951  -4791103.148
10 0 59523  12342.000000  0   -3948671.757  -3882223.830  -4105846.828
10 0 59523  12462.000000  0   -4433663.482  -4079483.949  -3348636.685
10 0 59523  12582.000000  0   -4844182.239  -4197842.658  -2532678.843
10 0 59523  12702.000000  0   -5171602.431  -4236541.587  -1672242.856
10 0 59523  12822.000000  0   -5408744.335  -4196355.040   -782412.762
10 0 59523  12942.000000  0   -5550035.621  -4079556.626    121180.191
10 0 59523  13062.000000  0   -5591643.240  -3889855.522   1022638.316
10 0 59523  13182.000000  0   -5531570.700  -3632303.024   1906086.746
10 0 59523  13302.000000  0   -5369717.372  -3313170.518   2755962.707
10 0 59523  13422.000000  0   -5107899.310  -2939803.667   3557297.635
10 0 59523  13542.000000  0   -4749831.439  -2520456.683   4295987.594
10 0 59523  13662.000000  0   -4301070.556  -2064109.648   4959045.587
10 0 59523  13782.000000  0   -3768922.287  -1580275.390   5534828.984
10 0 59523  13902.000000  0   -3162316.070  -1078801.004   6013241.415
10 0 59523  14022.000000  0   -2491648.719   -569666.375   6385907.042
10 0 59523  14142.000000  0   -1768599.054    -62784.022   6646311.596
10 0 59523  14262.000000  0   -1005919.755    432193.102   6789908.560
10 0 59523  14382.000000  0    -217211.218    906053.642   6814193.406
10 0 59523  14502.000000  0     583320.806   1350198.508   6718744.494
10 0 59523  14622.000000  0    1381120.352   1756796.912   6505230.086
10 0 59523  14742.000000  0    2161545.221   2118924.636   6177380.314
10 0 59523  14862.000000  0    2910135.031   2430682.183   5740926.337
10 0 59523  14982.000000  0    3612881.125   2687292.431   5203506.650
10 0 59523  15102.000000  0    4256492.290   2885175.489   4574538.758
10 0 59523  15222.000000  0    4828650.042   3021999.487   3865059.784
10 0 59523  15342.000000  0    5318253.197   3096706.525   3087537.864
10 0 59523  15462.000000  0    5715641.824   3109510.444   2255651.126
10 0 59523  15582.000000  0    6012793.733   3061869.141   1384045.754
10 0 59523  15702.000000  0    6203492.928   2956431.400    488072.713
10 0 59523  15822.000000  0    6283462.148   2796957.808   -416491.153
10 0 59523  15942.000000  0    6250455.793   2588217.568  -1313730.221
10 0 59523  16062.000000  0    6104311.532   2335865.472  -2187877.194
10 0 59523  16182.000000  0    5846962.168   2046303.810  -3023597.081
10 0 59523  16302.000000  0    5482404.438   1726529.129  -3806261.366
10 0 59523  16422.000000  0    5016627.485   1383969.436  -4522205.803
10 0 59523  16542.000000  0    4457501.785   1026316.092  -5158966.295
10 0 59523  16662.000000  0    3814634.807    661356.101  -5705488.302
10 0 59523  16782.000000  0    3099197.046    296807.206  -6152309.581
10 0 59523  16902.000000  0    2323720.699    -59840.457  -6491713.195
10 0 59523  17022.000000  0    1501877.317   -401473.455  -6717848.837
10 0 59523  17142.000000  0     648238.285   -721492.467  -6826824.459
10 0 59523  17262.000000  0    -221981.134  -1013935.794  -6816765.999
10 0 59523  17382.000000  0   -1093186.618  -1273586.687  -6687844.758
10 0 59523  17502.000000  0   -1949677.297  -1496064.034  -6442275.694
10 0 59523  17622.000000  0   -2775922.750  -1677895.078  -6084283.063
10 0 59523  17742.000000  0   -3556838.101  -1816568.764  -5620035.102
10 0 59523  17862.000000  0   -4278057.335  -1910570.346  -5057550.076
10 0 59523  17982.000000  0   -4926200.199  -1959395.383  -4406569.193
10 0 59523  18102.000000  0   -5489125.439  -1963542.678  -3678398.881
10 0 59523  18222.000000  0   -5956167.156  -1924486.501  -2885723.722
10 0 59523  18342.000000  0   -6318347.665  -1844627.715  -2042390.950
10 0 59523  18462.000000  0   -6568561.524  -1727224.566  -1163170.808
10 0 59523  18582.000000  0   -6701725.800  -1576304.740   -263496.079
10 0 59523  18702.000000  0   -6714892.160  -1396560.170    640814.017
10 0 59523  18822.000000  0   -6607316.683  -1193227.036   1533839.980
10 0 59523  18942.000000  0   -6380484.919   -971954.464   2399851.437
10 0 59523  19062.000000  0   -6038091.900   -738665.294   3223593.168
10 0 59523  19182.000000  0   -5585977.744   -499411.836   3990561.806
10 0 59523  19302.000000  0   -5032018.972   -260230.948   4687266.809
10 0 59523  19422.000000  0   -4385980.768    -27002.650   5301468.371
10 0 59523  19542.000000  0   -3659335.957    194685.608   5822390.796
10 0 59523  19662.000000  0   -2865052.026    399665.136   6240908.618
10 0 59523  19782.000000  0   -2017351.721    583299.630   6549700.774
10 0 59523  19902.000000  0   -1131452.988    741584.419   6743373.217
10 0 59523  20022.000000  0    -223292.559    871230.317   6818546.748
99
